#cP2022  4  3 12  0  0.00000000     576 d+D   IGb14 EXT AIUB
## 2204  43200.00000000   300.00000000 59672 0.5000000000000
+   68   G01G02G03G04G05G06G07G08G09G10G11G12G13G14G15G16G17
+        G18G19G20G21G22G23G24G25G26G27G28G29G30G31G32R01R02
+        R03R04R05R07R08R09R12R13R14R15R17R18R19R20R21R22R24
+        E01E02E03E04E05E07E08E09E14E18E19E21E24E25E27E30E31
+          0  0  0  0  0  0  0  0  0  0  0  0  0  0  0  0  0
++         6  7  6  7  7  6  7  7  6  6  9  7  7  7  7  7  7
++         8  7  7  7  7  6  5  6  6  6  7  8  6  7  5  8  6
++         6  6  7  7  6  6  7  8  7  7  8  7  8  9  8  8  8
++         6  6  6  6  6  5  6  6  7  6  6  6  7  6  6  6  6
++         0  0  0  0  0  0  0  0  0  0  0  0  0  0  0  0  0
%c M  cc GPS ccc cccc cccc cccc cccc ccccc ccccc ccccc ccccc
%c cc cc ccc ccc cccc cccc cccc cccc ccccc ccccc ccccc ccccc
%f  1.2500000  1.025000000  0.00000000000  0.000000000000000
%f  0.0000000  0.000000000  0.00000000000  0.000000000000000
%i    0    0    0    0      0      0      0      0         0
%i    0    0    0    0      0      0      0      0         0
/* Center for Orbit Determination in Europe (CODE)          
/* Ultra-rapid GRE orbits starting year-day 22093 12 hour   
/* Observed/predicted: 24/24 hours (data used up to 094L)   
/* PCV:IGS14      OL/AL:FES2014b NONE     YN ORB:CoN CLK:BRD
*  2022  4  4 21  5  0.00000000
PG01  17400.604242   6261.689426  18913.342342    392.584733               P   P
PG02 -14929.778539 -21809.259801   -965.848231   -652.906229               P   P
PG03  18060.583441  -5210.127520  18613.900848   -193.230666               P   P
PG04  26565.873327    722.198805  -1271.314188   -178.518769               P   P
PG05 -11247.858351 -10892.287877 -21600.398197    -77.136656               P   P
PG06  -3463.528856 -23368.396016  12124.661863    255.145420               P   P
PG07  11178.143041 -10900.658992 -21038.529959    319.078938               P   P
PG08  24482.745923   6239.366544  -8791.829251    -62.589898               P   P
PG09  22697.449903  -7913.190767 -11396.772447   -345.774543               P   P
PG10 -10823.831613  23685.217443   4505.116289   -368.541669               P   P
PG11 -12964.576568 -23037.248092  -2671.546995    -49.732902               P   P
PG12 -17173.743340    485.425258  19950.405936   -195.382864               P   P
PG13 -18170.962166 -13086.027775 -14563.112208    288.501873               P   P
PG14  12512.126631 -23125.504092   3430.584645    -99.982858               P   P
PG15 -25181.834102  -3831.522777  -8486.662671    -71.468636               P   P
PG16   6660.723969  15134.720221 -20953.308309   -488.267010               P   P
PG17   8458.231570 -13765.242380  21523.490387    596.157409               P   P
PG18 -11034.202028  10794.912690 -21605.999516    203.508291               P   P
PG19    172.043320 -14792.484587  21806.442326    140.096186               P   P
PG20  -5421.799948 -19585.435309 -17218.031886    515.980902               P   P
PG21  19483.715012  14750.151156  11835.686285    160.134375               P   P
PG22   3246.628756  15586.608865  21693.004402    238.234984               P   P
PG23 -16553.052760  19615.091101  -6644.125521    -12.428299               P   P
PG24 -19542.764144  -9202.346131  15420.344093    260.705904               P   P
PG25 -18546.217134  14162.194306  12134.626157    307.631644               P   P
PG26  -1292.145163  22865.046731 -13273.402566    196.160581               P   P
PG27  15754.633019  12499.919313 -17756.446747    174.679563               P   P
PG28   6709.993850 -22990.597047  12240.607921    373.865151               P   P
PG29 -23970.957916   4666.052153 -10569.160626   -499.371239               P   P
PG30   4933.070514 -18904.873005 -17807.254709   -522.218056               P   P
PG31   4813.810053  24044.898372   9462.988358   -171.995435               P   P
PG32  -4625.527681  15040.693685  21514.778234    -98.630584               P   P
PR01  21994.468351  -4067.569868  12255.852839      7.560477               P   P
PR02  20743.367851 -12985.944026  -7254.314146    514.593146               P   P
PR03   6610.250111 -13672.055695 -20461.104933     54.353641               P   P
PR04 -10860.644460  -6472.991821 -22119.075230    135.137318               P   P
PR05 -22372.780212   4079.224744 -11514.593825     90.561807               P   P
PR07  -5750.615443  13493.491704  20900.270498     33.461489               P   P
PR08  11070.303414   6501.401635  22107.728785    -64.395368               P   P
PR09  -9068.254825  18188.255833  15476.565356     48.054730               P   P
PR12  11020.487750    116.105237 -22984.144773     17.750077               P   P
PR13   9297.480026 -17124.971627 -16482.084616    -20.393170               P   P
PR14   1829.938554 -25421.571793    838.214933     76.138414               P   P
PR15  -6353.001420 -18203.580054  16715.902136     97.079203               P   P
PR17  -5527.440440 -15090.010881  19826.534715    514.942742               P   P
PR18 -18022.191624 -16816.136062   6458.439232    112.493694               P   P
PR19 -21004.154982 -11026.856226  -9371.710711   -184.152449               P   P
PR20 -11244.850631   3902.824847 -22546.667022    -68.012799               P   P
PR21   6786.130990  15552.098472 -19040.147108   -290.749969               P   P
PR22  18441.873463  16806.213475  -5575.034437   -174.838668               P   P
PR24  10898.901135  -5034.404217  22520.276556     87.577468               P   P
PE01  12610.805688 -26780.328519   -492.695528   -610.088389               P   P
PE02 -12497.983172  26819.179967    319.020373    290.727505               P   P
PE03 -12860.135314  16272.204584  21126.543933   -544.586205               P   P
PE04  -9359.722354 -15613.838678 -23329.087719   -999.476994               P   P
PE05 -27935.619476   7368.289765   6452.081430   -193.898934               P   P
PE07  26545.408303   5709.508452  11786.494951   -655.314198               P   P
PE08   9766.930317  15352.610258  23350.471451   -506.806156               P   P
PE09 -26675.009147  -5402.202567 -11645.903749   -473.026146               P   P
PE14  23907.744079   8447.676496  -7663.442760  -1802.552149               P   P
PE18 -30175.644645   2081.283554  -6234.138139  -1602.969376               P   P
PE19  15407.908804 -15496.467973 -19956.143462  -2469.244816               P   P
PE21  19307.646260 -14835.565098 -16842.052278   -726.549265               P   P
PE24 -14778.567644  -7792.151860  24417.324564   -543.134888               P   P
PE25 -19328.187203  14580.094384  17025.079221   -569.233895               P   P
PE27  15394.567755   6355.979068 -24472.450384   -268.823416               P   P
PE30   1611.470250  24228.925904 -16929.477786   -404.379434               P   P
PE31  -2450.678969 -23646.297538  17641.426386   -494.558400               P   P
EOF
